# From MPEC 2023-J95
C/2016 Q4 (Kowalski),e,7.2425,271.2927,99.8254,17.05013,0.0139995,0.58348460,28.4579,08/28.0/2023,2000,g  7.0,4.0
# From MPEC 2021-N06
C/2016 R2 (PANSTARRS),e,58.3661,80.5002,33.0899,485.8882,0.0000920,0.99465969,0.0000,05/09.5923/2018,2000,g  7.0,4.0
# From MPEC 2022-K19
P/2016 R4 (Gibbs),e,10.8750,168.2613,174.1506,5.333567,0.0800161,0.47588651,207.2947,08/28.0/2023,2000,g 12.5,4.0
# From MPC105543
P/2016 S1 (PANSTARRS),e,94.7381,227.6730,273.2314,8.273678,0.0414149,0.71076700,97.5078,08/28.0/2023,2000,g 12.0,4.0
# From MPC106345
P/2016 WM48 (Lemmon),e,117.6162,59.9462,36.1617,8.171451,0.0421944,0.78353330,100.2531,08/28.0/2023,2000,g 15.0,4.0
# From MPEC 2021-P47
C/2016 X1 (Lemmon),e,26.4633,256.3217,224.4976,1520,0.0000166,0.99503018,0.0000,04/28.2652/2019,2000,g  6.0,4.0
# From MPEC 2022-OB6
C/2017 B3 (LINEAR),e,54.1654,2.1807,284.8356,25223,0.0000002,0.99984411,0.0000,01/31.8066/2019,2000,g  6.0,4.0
# From MPC103847
P/2017 B4 (PANSTARRS),e,20.0584,121.4578,11.0197,4.410520,0.1064068,0.36495152,359.9130,01/05.0/2017,2000,g 14.5,4.0
# From MPEC 2022-OB6
P/2017 D1 (Fuls),e,20.7707,82.1956,7.9608,4.826689,0.0929459,0.43731180,243.6230,08/28.0/2023,2000,g 14.0,4.0
# From MPEC 2022-OB6
P/2017 D4 (PANSTARRS),e,10.5569,264.9535,212.0916,7.545744,0.0475500,0.62947393,121.1017,08/28.0/2023,2000,g 13.0,4.0
# From MPC104794
P/2017 G1 (PANSTARRS),e,4.7872,249.6978,224.3077,7.272807,0.0502517,0.65424446,134.5536,08/28.0/2023,2000,g 13.5,4.0
# From MPC108595
P/2017 G2 (PANSTARRS),e,47.9652,79.8703,105.3425,8.046670,0.0431797,0.64769229,98.0668,08/28.0/2023,2000,g 13.0,4.0
# From MPEC 2023-QF0
C/2017 K2 (PANSTARRS),h,12/19.6854/2022,87.5643,88.2349,236.2030,1.000724,1.797127,2000,1.5,4.0
# From MPEC 2021-N06
P/2017 K3 (Gasparovic),e,4.2736,354.3044,253.3713,5.585057,0.0746728,0.57891568,170.6101,08/28.0/2023,2000,g 14.5,4.0
# From MPEC 2021-P47
C/2017 K5 (PANSTARRS),h,03/27.1799/2020,82.2662,102.4050,172.0620,1.004833,7.684220,2000,5.0,4.0
# From MPEC 2022-OB6
C/2017 M4 (ATLAS),h,01/17.9551/2019,105.6305,65.9995,167.5711,1.001032,3.248562,2000,6.0,4.0
# From MPC118841
C/2017 M5 (TOTAS),h,06/03.4868/2018,15.8586,216.2875,92.8911,1.004471,6.009638,2000,6.5,4.0
# From MPC114599
P/2017 P1 (PANSTARRS),e,7.6884,221.3527,122.8450,7.917540,0.0442404,0.31046767,83.6974,08/28.0/2023,2000,g 10.0,4.0
# From MPC114599
C/2017 S3 (PANSTARRS),h,08/17.0217/2018,99.1503,171.2002,255.7494,1.000097,0.203630,2000,12.9,4.0
# From MPEC 2022-OB6
P/2017 S8 (PANSTARRS),e,29.8482,191.5191,254.8723,2.778617,0.2127948,0.39092157,73.7855,08/28.0/2023,2000,g 16.0,4.0
# From MPEC 2022-YN2
C/2017 T2 (PANSTARRS),e,57.2808,64.4341,92.8782,1498,0.0000170,0.99892389,0.0000,05/04.9342/2020,2000,g  5.0,4.0
# From MPC114600
C/2017 T3 (ATLAS),e,88.2947,230.2616,246.7755,1323,0.0000205,0.99937918,0.0000,07/19.6773/2018,2000,g 10.0,4.0
# From MPC115882
P/2017 TW13 (Lemmon),e,44.8528,322.2185,119.9276,7.134812,0.0517166,0.71055172,97.8785,08/28.0/2023,2000,g 15.0,2.0
# From MPEC 2022-K19
P/2017 U3 (PANSTARRS),e,15.9178,165.0989,296.2109,4.923194,0.0902264,0.10001338,144.2557,08/28.0/2023,2000,g 11.0,4.0
# From MPEC 2023-CD7
C/2017 U4 (PANSTARRS),e,158.1997,245.9004,158.9888,6236,0.0000020,0.99876083,0.0000,09/21.2185/2018,2000,g  7.0,4.0
# From MPEC 2023-A50
C/2017 U7 (PANSTARRS),h,09/15.6940/2019,142.6230,276.2831,326.4545,1.002177,6.428464,2000,8.3,2.0
# From MPC114601
P/2017 W3 (Gibbs),e,18.1708,210.1790,327.7928,7.827556,0.0450054,0.50631905,90.4085,08/28.0/2023,2000,g 10.5,4.0
# From MPEC 2021-R75
C/2017 X1 (PANSTARRS),e,31.3477,251.1701,283.0699,30.95517,0.0057227,0.84947468,10.8799,08/28.0/2023,2000,g 10.0,4.0
# From MPEC 2022-QD9
C/2017 Y2 (PANSTARRS),h,11/05.1397/2020,128.4439,66.0236,147.9291,1.001564,4.631430,2000,15.0,4.0
# From MPC111770
P/2017 Y3 (Leonard),e,27.5760,153.8830,67.5368,9.813326,0.0320612,0.86933184,64.9987,08/28.0/2023,2000,g 16.5,4.0
# From MPEC 2021-P47
C/2018 A3 (ATLAS),e,139.5450,194.2986,86.3652,353.2699,0.0001484,0.99071193,0.0000,01/10.2218/2019,2000,g  8.5,4.0
# From MPEC 2023-J29
C/2018 A4 (PANSTARRS),e,3.1517,97.5639,355.9571,12.18745,0.0231651,0.80412377,44.6131,08/28.0/2023,2000,g 14.0,4.0
# From MPC109147
P/2018 A5 (PANSTARRS),e,23.6202,87.7866,359.4899,5.627086,0.0738378,0.52381006,159.6940,08/28.0/2023,2000,g 15.0,4.0
# From MPEC 2022-ST7
C/2018 A6 (Gibbs),e,77.0759,340.3919,264.3340,15.02908,0.0169163,0.79915632,25.5262,08/28.0/2023,2000,g  9.0,4.0
# From MPC114601
P/2018 C1 (Lemmon-Read),e,5.1090,270.3083,235.7012,5.651823,0.0733536,0.53208571,147.5797,08/28.0/2023,2000,g 13.5,4.0
# From MPC114601
C/2018 C2 (Lemmon),e,34.4629,91.3052,133.9381,7199,0.0000016,0.99972777,0.0000,05/30.8231/2018,2000,g 13.0,4.0
# From MPEC 2022-M88
C/2018 DO4 (Lemmon),e,160.4441,251.4301,176.3241,25.33634,0.0077284,0.90465292,11.3793,08/28.0/2023,2000,g 11.0,4.0
# From MPC114602
C/2018 E1 (ATLAS),e,72.4895,146.7966,299.2744,53.89284,0.0024912,0.95009203,4.8765,08/28.0/2023,2000,g 10.5,4.0
# From MPC114602
C/2018 EN4 (NEOWISE),e,81.9819,136.1321,35.0033,17.88785,0.0130277,0.91833774,24.9262,08/28.0/2023,2000,g 15.0,4.0
# From MPEC 2023-CD7
C/2018 EF9 (Lemmon),e,84.6502,172.5770,72.6406,435.4753,0.0001085,0.99640966,0.0000,05/20.5318/2018,2000,g 18.0,2.0
# From MPEC 2021-R75
C/2018 F1 (Grauer),e,46.0900,177.2799,71.5631,232.4960,0.0002780,0.98710830,0.0000,12/11.3046/2018,2000,g 11.5,4.0
# From MPEC 2023-A50
C/2018 F4 (PANSTARRS),e,78.0829,26.5152,263.2122,3753,0.0000043,0.99908198,0.0000,12/02.5614/2019,2000,g 11.0,6.0
# From MPEC 2021-Y10
C/2018 F4-A,e,78.0831,26.5154,263.2090,3548,0.0000047,0.99902901,0.0000,12/02.5495/2019,2000,g 11.0,6.0
# From MPEC 2023-D41
C/2018 F4-B,e,78.0840,26.5149,263.1948,3905,0.0000040,0.99911781,0.0000,12/02.4863/2019,2000,g 11.0,6.0
# From MPC114602
P/2018 H2 (PANSTARRS),e,7.4494,67.6119,120.0772,4.388549,0.1072069,0.54175306,220.6708,08/28.0/2023,2000,g 16.6,2.0
# From MPEC 2021-R75
C/2018 KJ3 (Lemmon),e,136.6555,91.6698,217.6406,899.7053,0.0000365,0.99597155,0.0000,09/09.9280/2019,2000,g 12.2,2.0
# From MPC114602
P/2018 L1 (PANSTARRS),e,10.5766,268.6011,18.0287,3.654706,0.1410670,0.48151800,247.0260,08/28.0/2023,2000,g 15.0,4.0
# From MPEC 2021-P47
C/2018 L2 (ATLAS),e,67.2242,242.9911,56.3406,252.6552,0.0002454,0.99320136,0.0000,12/01.7096/2018,2000,g 10.0,4.0
# From MPC114603
P/2018 L4 (PANSTARRS),e,26.6102,145.1923,140.6004,4.946416,0.0895918,0.65868562,166.2001,08/28.0/2023,2000,g 17.5,4.0
# From MPC119996
P/2018 L5 (Leonard),e,2.2092,219.0314,93.9676,3.629100,0.1425626,0.36403445,276.6221,08/28.0/2023,2000,g 14.5,4.0
# From MPC117070
C/2018 M1 (Catalina),e,37.2556,339.4313,14.2697,21.53255,0.0098642,0.93927048,18.4867,08/28.0/2023,2000,g 15.5,4.0
# From MPEC 2022-M21
C/2018 N1 (NEOWISE),e,159.3917,292.5831,354.7469,519.3726,0.0000833,0.99748416,0.0000,08/03.3558/2018,2000,g 15.5,4.0
# From MPEC 2022-YN2
C/2018 N2 (ASASSN),h,11/11.5759/2019,77.5562,25.2019,24.5204,1.001279,3.129509,2000,6.0,4.0
# From MPC114603
C/2018 O1 (ATLAS),e,153.9837,87.8332,162.7182,28.08867,0.0066208,0.94463080,12.0566,08/28.0/2023,2000,g 17.0,4.0
# From MPEC 2023-J29
P/2018 P3 (PANSTARRS),e,8.9148,59.1604,306.0088,3.003739,0.1893262,0.41714461,337.1412,08/28.0/2023,2000,g 14.5,4.0
# From MPC114603
P/2018 P4 (PANSTARRS),e,23.1041,353.0715,8.4891,6.687998,0.0569849,0.45034655,99.8827,08/28.0/2023,2000,g 12.0,4.0
# From MPEC 2021-P47
C/2018 P5 (PANSTARRS),e,7.2462,216.1873,132.0362,12.85095,0.0213944,0.64274454,35.1287,08/28.0/2023,2000,g 11.0,4.0
# From MPC118841
C/2018 R3 (Lemmon),e,69.7023,324.5381,112.7415,1600,0.0000154,0.99919867,0.0000,06/07.9972/2019,2000,g  9.5,4.0
# From MPC114603
C/2018 R5 (Lemmon),e,103.7404,171.1335,178.2537,22.93658,0.0089725,0.84151124,15.1685,08/28.0/2023,2000,g 11.5,4.0
# From MPEC 2022-QC6
C/2018 S2 (TESS),e,64.1364,85.0882,290.8551,14.36467,0.0181034,0.61870219,31.7761,08/28.0/2023,2000,g  7.5,4.0
# From MPEC 2023-N01
C/2018 U1 (Lemmon),h,11/03.0503/2021,108.3217,75.5005,180.4643,1.001403,4.992297,2000,5.0,4.0
# From MPC114604
C/2018 V1 (Machholz-Fujikawa-Iwamoto),h,12/02.9009/2018,144.1224,129.1900,89.2380,1.000381,0.391384,2000,12.0,4.0
# From MPC115884
C/2018 V2 (ATLAS),e,159.1673,357.0945,319.0828,25.10814,0.0078340,0.90089538,13.6053,08/28.0/2023,2000,g 15.0,4.0
# From MPEC 2023-CD7
P/2018 VN2 (Leonard),e,18.2596,226.4420,138.9054,4.061841,0.1203981,0.47864793,229.5880,08/28.0/2023,2000,g 15.0,4.0
# From MPEC 2022-VC5
A/2018 V3,e,164.9532,308.7289,3.6167,128.3042,0.0006782,0.98956339,0.0000,09/09.5496/2019,2000,g 15.7,2.0
# From MPEC 2022-M21
C/2018 V4 (Africano),e,69.0398,78.2539,359.9762,203.8724,0.0003386,0.98432351,0.0000,03/01.6925/2019,2000,g 12.5,4.0
# From MPEC 2021-P47
P/2018 V5 (Trujillo-Sheppard),e,10.5871,171.2833,260.7044,8.964969,0.0367182,0.47580119,65.6713,08/28.0/2023,2000,g 12.5,4.0
# From MPEC 2021-P47
C/2018 W1 (Catalina),e,83.3997,233.6787,251.1907,21.69692,0.0097523,0.93744581,15.2988,08/28.0/2023,2000,g 15.5,2.0
# From MPEC 2021-P47
C/2018 W2 (Africano),h,09/05.2989/2019,116.6179,181.8348,158.1179,1.000691,1.463006,2000,9.5,4.0
# From MPEC 2023-M14
A/2018 W3,e,104.8289,251.6795,313.9584,713.2134,0.0000517,0.99398513,0.0000,04/13.0746/2021,2000,g 10.7,2.0
# From MPC119996
C/2018 X2 (Fitzsimmons),e,23.0769,340.7814,161.9371,139.0621,0.0006010,0.98476909,0.0000,07/08.4420/2019,2000,g 12.0,4.0
# From MPC114604
C/2018 X3 (PANSTARRS),e,43.4234,78.8062,359.7692,12.38108,0.0226238,0.78267648,38.4717,08/28.0/2023,2000,g 14.5,4.0
# From MPEC 2023-HD1
C/2018 Y1 (Iwamoto),e,160.4222,147.4589,357.8887,128.6109,0.0006758,0.99001181,0.0000,02/05.3795/2019,2000,g  9.0,4.0
# From MPC114605
P/2018 Y2 (Africano),e,11.6863,297.1823,162.2531,7.453038,0.0484400,0.47950958,82.2840,08/28.0/2023,2000,g 11.5,4.0
# From MPC114605
P/2019 A1 (PANSTARRS),e,13.7561,312.2462,150.7165,5.115268,0.0851925,0.56946430,151.7609,08/28.0/2023,2000,g 16.0,4.0
# From MPEC 2021-P47
